{"type": "FeatureCollection", "features": [ {"type": "Feature", "properties": {"norad_id": 66601, "name": "STARLINK-35978", "group": "last-30-days", "lat": -38.43609624654776, "lon": 120.09583574648906, "alt_km": 421.50222810365995, "timestamp": "2025-12-15T04:01:19.180057+00:00", "meta": {"OBJECT_NAME": "STARLINK-35978", "OBJECT_ID": "2025-270P", "EPOCH": "2025-12-14T06:38:34.715616", "MEAN_MOTION": 15.49227487, "ECCENTRICITY": 7.653e-05, "INCLINATION": 42.9992, "RA_OF_ASC_NODE": 183.6923, "ARG_OF_PERICENTER": 264.4873, "MEAN_ANOMALY": 95.5899, "EPHEMERIS_TYPE": 0, "CLASSIFICATION_TYPE": "U", "NORAD_CAT_ID": 66601, "ELEMENT_SET_NO": 999, "REV_AT_EPOCH": 442, "BSTAR": 0.00062994887, "MEAN_MOTION_DOT": 0.0003505, "MEAN_MOTION_DDOT": 0}, "tle": {"line1": "1 66601U 25270P   25348.27679069  .00035050  00000+0  62995-3 0  9999", "line2": "2 66601  42.9992 183.6923 0000765 264.4873  95.5899 15.49227487  4424"}}, "geometry": {"type": "Point", "coordinates": [120.09583574648906, -38.43609624654776]}}, {"type": "Feature", "properties": {"norad_id": 66602, "name": "STARLINK-36050", "group": "last-30-days", "lat": -20.971754011318936, "lon": 22.979451732698923, "alt_km": 445.29315256731024, "timestamp": "2025-12-15T04:01:19.180068+00:00", "meta": {"OBJECT_NAME": "STARLINK-36050", "OBJECT_ID": "2025-270Q", "EPOCH": "2025-12-14T06:00:02.999808", "MEAN_MOTION": 15.40686607, "ECCENTRICITY": 0.0001765, "INCLINATION": 42.9999, "RA_OF_ASC_NODE": 183.9797, "ARG_OF_PERICENTER": 255.3722, "MEAN_ANOMALY": 261.0026, "EPHEMERIS_TYPE": 0, "CLASSIFICATION_TYPE": "U", "NORAD_CAT_ID": 66602, "ELEMENT_SET_NO": 999, "REV_AT_EPOCH": 454, "BSTAR": 0.00022678323, "MEAN_MOTION_DOT": 9.177e-05, "MEAN_MOTION_DDOT": 0}, "tle": {"line1": "1 66602U 25270Q   25348.25003472  .00009177  00000+0  22678-3 0  9992", "line2": "2 66602  42.9999 183.9797 0001765 255.3722 261.0026 15.40686607  4546"}}, "geometry": {"type": "Point", "coordinates": [22.979451732698923, -20.971754011318936]}}, {"type": "Feature", "properties": {"norad_id": 66603, "name": "STARLINK-36048", "group": "last-30-days", "lat": -33.947928213190444, "lon": 132.20747860577814, "alt_km": 416.4755980010914, "timestamp": "2025-12-15T04:01:19.180080+00:00", "meta": {"OBJECT_NAME": "STARLINK-36048", "OBJECT_ID": "2025-270R", "EPOCH": "2025-12-14T06:36:59.819904", "MEAN_MOTION": 15.50602076, "ECCENTRICITY": 0.00019173, "INCLINATION": 42.999, "RA_OF_ASC_NODE": 183.6835, "ARG_OF_PERICENTER": 250.1702, "MEAN_ANOMALY": 109.8952, "EPHEMERIS_TYPE": 0, "CLASSIFICATION_TYPE": "U", "NORAD_CAT_ID": 66603, "ELEMENT_SET_NO": 999, "REV_AT_EPOCH": 448, "BSTAR": 0.0018903592, "MEAN_MOTION_DOT": 0.00112254, "MEAN_MOTION_DDOT": 0}, "tle": {"line1": "1 66603U 25270R   25348.27569236  .00112254  00000+0  18904-2 0  9997", "line2": "2 66603  42.9990 183.6835 0001917 250.1702 109.8952 15.50602076  4487"}}, "geometry": {"type": "Point", "coordinates": [132.20747860577814, -33.947928213190444]}}, {"type": "Feature", "properties": {"norad_id": 66604, "name": "STARLINK-35977", "group": "last-30-days", "lat": -32.994733594350606, "lon": 134.28976495881224, "alt_km": 416.4583792547528, "timestamp": "2025-12-15T04:01:19.180091+00:00", "meta": {"OBJECT_NAME": "STARLINK-35977", "OBJECT_ID": "2025-270S", "EPOCH": "2025-12-14T06:36:30.068928", "MEAN_MOTION": 15.50598213, "ECCENTRICITY": 0.00012519, "INCLINATION": 42.9988, "RA_OF_ASC_NODE": 183.6813, "ARG_OF_PERICENTER": 266.4209, "MEAN_ANOMALY": 93.6508, "EPHEMERIS_TYPE": 0, "CLASSIFICATION_TYPE": "U", "NORAD_CAT_ID": 66604, "ELEMENT_SET_NO": 999, "REV_AT_EPOCH": 458, "BSTAR": 0.0023427659, "MEAN_MOTION_DOT": 0.00139672, "MEAN_MOTION_DDOT": 0}, "tle": {"line1": "1 66604U 25270S   25348.27534802  .00139672  00000+0  23428-2 0  9999", "line2": "2 66604  42.9988 183.6813 0001251 266.4209  93.6508 15.50598213  4589"}}, "geometry": {"type": "Point", "coordinates": [134.28976495881224, -32.994733594350606]}}, {"type": "Feature", "properties": {"norad_id": 66605, "name": "STARLINK-36052", "group": "last-30-days", "lat": -32.13380366791022, "lon": 136.0739263691197, "alt_km": 416.6697719762842, "timestamp": "2025-12-15T04:01:19.180101+00:00", "meta": {"OBJECT_NAME": "STARLINK-36052", "OBJECT_ID": "2025-270T", "EPOCH": "2025-12-14T06:36:00.841536", "MEAN_MOTION": 15.50589496, "ECCENTRICITY": 0.00011727, "INCLINATION": 42.9993, "RA_OF_ASC_NODE": 183.6793, "ARG_OF_PERICENTER": 272.4287, "MEAN_ANOMALY": 87.6439, "EPHEMERIS_TYPE": 0, "CLASSIFICATION_TYPE": "U", "NORAD_CAT_ID": 66605, "ELEMENT_SET_NO": 999, "REV_AT_EPOCH": 458, "BSTAR": 0.001606387, "MEAN_MOTION_DOT": 0.00095085, "MEAN_MOTION_DDOT": 0}, "tle": {"line1": "1 66605U 25270T   25348.27500974  .00095085  00000+0  16064-2 0  9990", "line2": "2 66605  42.9993 183.6793 0001172 272.4287  87.6439 15.50589496  4587"}}, "geometry": {"type": "Point", "coordinates": [136.0739263691197, -32.13380366791022]}}, {"type": "Feature", "properties": {"norad_id": 66606, "name": "STARLINK-36063", "group": "last-30-days", "lat": -30.115765561573205, "lon": 139.94710241811944, "alt_km": 416.3080060773909, "timestamp": "2025-12-15T04:01:19.180111+00:00", "meta": {"OBJECT_NAME": "STARLINK-36063", "OBJECT_ID": "2025-270U", "EPOCH": "2025-12-14T06:35:01.284288", "MEAN_MOTION": 15.50597871, "ECCENTRICITY": 0.00017964, "INCLINATION": 42.999, "RA_OF_ASC_NODE": 183.6725, "ARG_OF_PERICENTER": 262.3668, "MEAN_ANOMALY": 97.6989, "EPHEMERIS_TYPE": 0, "CLASSIFICATION_TYPE": "U", "NORAD_CAT_ID": 66606, "ELEMENT_SET_NO": 999, "REV_AT_EPOCH": 458, "BSTAR": 0.00168214, "MEAN_MOTION_DOT": 0.00099675, "MEAN_MOTION_DDOT": 0}, "tle": {"line1": "1 66606U 25270U   25348.27432042  .00099675  00000+0  16821-2 0  9991", "line2": "2 66606  42.9990 183.6725 0001796 262.3668  97.6989 15.50597871  4580"}}, "geometry": {"type": "Point", "coordinates": [139.94710241811944, -30.115765561573205]}}, {"type": "Feature", "properties": {"norad_id": 66607, "name": "STARLINK-35993", "group": "last-30-days", "lat": -31.121038112331153, "lon": 138.0662525848545, "alt_km": 416.43063317821816, "timestamp": "2025-12-15T04:01:19.180121+00:00", "meta": {"OBJECT_NAME": "STARLINK-35993", "OBJECT_ID": "2025-270V", "EPOCH": "2025-12-14T06:35:30.891840", "MEAN_MOTION": 15.50599245, "ECCENTRICITY": 0.00016058, "INCLINATION": 42.999, "RA_OF_ASC_NODE": 183.6761, "ARG_OF_PERICENTER": 262.8291, "MEAN_ANOMALY": 97.2386, "EPHEMERIS_TYPE": 0, "CLASSIFICATION_TYPE": "U", "NORAD_CAT_ID": 66607, "ELEMENT_SET_NO": 999, "REV_AT_EPOCH": 448, "BSTAR": 0.0016788235, "MEAN_MOTION_DOT": 0.0009948, "MEAN_MOTION_DDOT": 0}, "tle": {"line1": "1 66607U 25270V   25348.27466310  .00099480  00000+0  16788-2 0  9993", "line2": "2 66607  42.9990 183.6761 0001605 262.8291  97.2386 15.50599245  4480"}}, "geometry": {"type": "Point", "coordinates": [138.0662525848545, -31.121038112331153]}}, {"type": "Feature", "properties": {"norad_id": 66608, "name": "STARLINK-36036", "group": "last-30-days", "lat": -29.051282672517797, "lon": 141.84750002389458, "alt_km": 416.2081547658163, "timestamp": "2025-12-15T04:01:19.180135+00:00", "meta": {"OBJECT_NAME": "STARLINK-36036", "OBJECT_ID": "2025-270W", "EPOCH": "2025-12-14T06:34:31.700928", "MEAN_MOTION": 15.50602423, "ECCENTRICITY": 0.00016313, "INCLINATION": 42.9988, "RA_OF_ASC_NODE": 183.67, "ARG_OF_PERICENTER": 265.9794, "MEAN_ANOMALY": 94.088, "EPHEMERIS_TYPE": 0, "CLASSIFICATION_TYPE": "U", "NORAD_CAT_ID": 66608, "ELEMENT_SET_NO": 999, "REV_AT_EPOCH": 442, "BSTAR": 0.0019333539, "MEAN_MOTION_DOT": 0.00114854, "MEAN_MOTION_DDOT": 0}, "tle": {"line1": "1 66608U 25270W   25348.27397802  .00114854  00000+0  19334-2 0  9996", "line2": "2 66608  42.9988 183.6700 0001631 265.9794  94.0880 15.50602423  4423"}}, "geometry": {"type": "Point", "coordinates": [141.84750002389458, -29.051282672517797]}}, {"type": "Feature", "properties": {"norad_id": 66609, "name": "STARLINK-36034", "group": "last-30-days", "lat": -28.010212236790004, "lon": 143.62595717504422, "alt_km": 416.2262535184773, "timestamp": "2025-12-15T04:01:19.180145+00:00", "meta": {"OBJECT_NAME": "STARLINK-36034", "OBJECT_ID": "2025-270X", "EPOCH": "2025-12-14T06:34:01.985376", "MEAN_MOTION": 15.50600819, "ECCENTRICITY": 0.00017596, "INCLINATION": 42.9989, "RA_OF_ASC_NODE": 183.6676, "ARG_OF_PERICENTER": 262.0789, "MEAN_ANOMALY": 97.9871, "EPHEMERIS_TYPE": 0, "CLASSIFICATION_TYPE": "U", "NORAD_CAT_ID": 66609, "ELEMENT_SET_NO": 999, "REV_AT_EPOCH": 442, "BSTAR": 0.0017241329, "MEAN_MOTION_DOT": 0.00102216, "MEAN_MOTION_DDOT": 0}, "tle": {"line1": "1 66609U 25270X   25348.27363409  .00102216  00000+0  17241-2 0  9997", "line2": "2 66609  42.9989 183.6676 0001759 262.0789  97.9871 15.50600819  4429"}}, "geometry": {"type": "Point", "coordinates": [143.62595717504422, -28.010212236790004]}}, {"type": "Feature", "properties": {"norad_id": 66610, "name": "STARLINK-35680", "group": "last-30-days", "lat": -26.889857092428578, "lon": 145.45966321203403, "alt_km": 415.92861421588805, "timestamp": "2025-12-15T04:01:19.180155+00:00", "meta": {"OBJECT_NAME": "STARLINK-35680", "OBJECT_ID": "2025-270Y", "EPOCH": "2025-12-14T06:33:32.282784", "MEAN_MOTION": 15.50607541, "ECCENTRICITY": 0.00017051, "INCLINATION": 42.9987, "RA_OF_ASC_NODE": 183.6643, "ARG_OF_PERICENTER": 275.4875, "MEAN_ANOMALY": 84.579, "EPHEMERIS_TYPE": 0, "CLASSIFICATION_TYPE": "U", "NORAD_CAT_ID": 66610, "ELEMENT_SET_NO": 999, "REV_AT_EPOCH": 469, "BSTAR": 0.0019646353, "MEAN_MOTION_DOT": 0.00116768, "MEAN_MOTION_DDOT": 0}, "tle": {"line1": "1 66610U 25270Y   25348.27329031  .00116768  00000+0  19646-2 0  9990", "line2": "2 66610  42.9987 183.6643 0001705 275.4875  84.5790 15.50607541  4698"}}, "geometry": {"type": "Point", "coordinates": [145.45966321203403, -26.889857092428578]}}]}